[{"OBJECT_NAME":"OBJECT A","OBJECT_ID":"2025-197A","EPOCH":"2026-03-09T23:57:28.367136","MEAN_MOTION":15.09670549,"ECCENTRICITY":0.0013887,"INCLINATION":97.4116,"RA_OF_ASC_NODE":254.3664,"ARG_OF_PERICENTER":14.3167,"MEAN_ANOMALY":345.8453,"EPHEMERIS_TYPE":0,"CLASSIFICATION_TYPE":"U","NORAD_CAT_ID":65488,"ELEMENT_SET_NO":999,"REV_AT_EPOCH":2804,"BSTAR":0.00030852597,"MEAN_MOTION_DOT":4.917e-5,"MEAN_MOTION_DDOT":0},{"OBJECT_NAME":"FENGYUN 1C DEB","OBJECT_ID":"1999-025EXR","EPOCH":"2026-03-05T14:34:14.362752","MEAN_MOTION":14.4362046,"ECCENTRICITY":0.030822,"INCLINATION":99.1548,"RA_OF_ASC_NODE":121.0018,"ARG_OF_PERICENTER":113.0587,"MEAN_ANOMALY":250.3412,"EPHEMERIS_TYPE":0,"CLASSIFICATION_TYPE":"U","NORAD_CAT_ID":41011,"ELEMENT_SET_NO":999,"REV_AT_EPOCH":58352,"BSTAR":0.00084253,"MEAN_MOTION_DOT":5.051e-5,"MEAN_MOTION_DDOT":0}]
